[Satellite]
VERSION=1.1
NAME=JAISAT-1
NICKNAME=JAISAT-1
TLE1=1 44419U 19038F   19316.84515941  .00000792  00000-0  49114-4 0  9991
TLE2=2 44419  97.5085 276.4742 0022297 156.7267 203.4978 15.12420426 19703
STATUS=0
